XRISM                   
1 57800U 23137A   24083.75486625  .00009088  00000+0  70624-3 0  9992
2 57800  31.0028 195.9525 0010103  83.2971 276.8814 15.00019934 29769
